{
  "type": "FeatureCollection",
  "features": [
    {
      "type": "Feature",
      "properties": {
        "norad_id": 31752,
        "name": "FENGYUN 1C DEB",
        "group": "fengyun-1c-debris",
        "lat": -21.522352532247503,
        "lon": 77.59186351387375,
        "alt_km": 736.4323990825724,
        "timestamp": "2025-12-27T15:27:11.474631+00:00",
        "meta_object_name": "FENGYUN 1C DEB",
        "meta_object_id": "1999-025CFB",
        "meta_epoch": "2025-12-18T10:55:16.632768",
        "meta_mean_motion": 13.93070684,
        "meta_eccentricity": 0.03557691,
        "meta_inclination": 98.9786,
        "meta_ra_of_asc_node": 65.0821,
        "meta_arg_of_pericenter": 317.9795,
        "meta_mean_anomaly": 39.4568,
        "meta_ephemeris_type": 0,
        "meta_classification_type": "U",
        "meta_norad_cat_id": 31752,
        "meta_element_set_no": 999,
        "meta_rev_at_epoch": 93670,
        "meta_bstar": 0.0010716417,
        "meta_mean_motion_dot": 2.302e-05,
        "meta_mean_motion_ddot": 0,
        "tle_line1": "1 31752U 99025CFB 25352.45505362  .00002302  00000+0  10716-2 0  9993",
        "tle_line2": "2 31752  98.9786  65.0821 0355769 317.9795  39.4568 13.93070684936706"
      },
      "geometry": {
        "type": "Point",
        "coordinates": [
          77.59186351387375,
          -21.522352532247503
        ]
      }
    },
    {
      "type": "Feature",
      "properties": {
        "norad_id": 31753,
        "name": "FENGYUN 1C DEB",
        "group": "fengyun-1c-debris",
        "lat": 7.902030077627498,
        "lon": -144.42341636705763,
        "alt_km": 743.9835415423131,
        "timestamp": "2025-12-27T15:27:11.474641+00:00",
        "meta_object_name": "FENGYUN 1C DEB",
        "meta_object_id": "1999-025CFC",
        "meta_epoch": "2025-12-27T01:15:28.874592",
        "meta_mean_motion": 14.18657287,
        "meta_eccentricity": 0.01596569,
        "meta_inclination": 98.6305,
        "meta_ra_of_asc_node": 33.7929,
        "meta_arg_of_pericenter": 132.6644,
        "meta_mean_anomaly": 259.0312,
        "meta_ephemeris_type": 0,
        "meta_classification_type": "U",
        "meta_norad_cat_id": 31753,
        "meta_element_set_no": 999,
        "meta_rev_at_epoch": 96222,
        "meta_bstar": 0.00031521542,
        "meta_mean_motion_dot": 7e-06,
        "meta_mean_motion_ddot": 0,
        "tle_line1": "1 31753U 99025CFC 25361.05241753  .00000700  00000+0  31522-3 0  9990",
        "tle_line2": "2 31753  98.6305  33.7929 0159656 132.6644 259.0312 14.18657287962225"
      },
      "geometry": {
        "type": "Point",
        "coordinates": [
          -144.42341636705763,
          7.902030077627498
        ]
      }
    },
    {
      "type": "Feature",
      "properties": {
        "norad_id": 31754,
        "name": "FENGYUN 1C DEB",
        "group": "fengyun-1c-debris",
        "lat": 80.88220514965747,
        "lon": -129.3732984603601,
        "alt_km": 738.1049342405458,
        "timestamp": "2025-12-27T15:27:11.474652+00:00",
        "meta_object_name": "FENGYUN 1C DEB",
        "meta_object_id": "1999-025CFD",
        "meta_epoch": "2025-12-26T20:42:57.525120",
        "meta_mean_motion": 14.42346503,
        "meta_eccentricity": 0.0049649,
        "meta_inclination": 99.0415,
        "meta_ra_of_asc_node": 326.99,
        "meta_arg_of_pericenter": 175.3209,
        "meta_mean_anomaly": 184.8453,
        "meta_ephemeris_type": 0,
        "meta_classification_type": "U",
        "meta_norad_cat_id": 31754,
        "meta_element_set_no": 999,
        "meta_rev_at_epoch": 97193,
        "meta_bstar": 0.0011134,
        "meta_mean_motion_dot": 3.685e-05,
        "meta_mean_motion_ddot": 0,
        "tle_line1": "1 31754U 99025CFD 25360.86316580  .00003685  00000+0  11134-2 0  9991",
        "tle_line2": "2 31754  99.0415 326.9900 0049649 175.3209 184.8453 14.42346503971932"
      },
      "geometry": {
        "type": "Point",
        "coordinates": [
          -129.3732984603601,
          80.88220514965747
        ]
      }
    },
    {
      "type": "Feature",
      "properties": {
        "norad_id": 31757,
        "name": "FENGYUN 1C DEB",
        "group": "fengyun-1c-debris",
        "lat": 56.62985285217487,
        "lon": 9.744357989895775,
        "alt_km": 708.7933060247678,
        "timestamp": "2025-12-27T15:27:11.474662+00:00",
        "meta_object_name": "FENGYUN 1C DEB",
        "meta_object_id": "1999-025CFG",
        "meta_epoch": "2025-12-19T19:34:47.252352",
        "meta_mean_motion": 14.07925739,
        "meta_eccentricity": 0.02177667,
        "meta_inclination": 98.7671,
        "meta_ra_of_asc_node": 15.6869,
        "meta_arg_of_pericenter": 64.1846,
        "meta_mean_anomaly": 298.1612,
        "meta_ephemeris_type": 0,
        "meta_classification_type": "U",
        "meta_norad_cat_id": 31757,
        "meta_element_set_no": 999,
        "meta_rev_at_epoch": 63981,
        "meta_bstar": 9.3425243e-05,
        "meta_mean_motion_dot": 1.55e-06,
        "meta_mean_motion_ddot": 0,
        "tle_line1": "1 31757U 99025CFG 25353.81582468  .00000155  00000+0  93425-4 0  9995",
        "tle_line2": "2 31757  98.7671  15.6869 0217766  64.1846 298.1612 14.07925739639819"
      },
      "geometry": {
        "type": "Point",
        "coordinates": [
          9.744357989895775,
          56.62985285217487
        ]
      }
    },
    {
      "type": "Feature",
      "properties": {
        "norad_id": 31758,
        "name": "FENGYUN 1C DEB",
        "group": "fengyun-1c-debris",
        "lat": -31.114498665555466,
        "lon": 14.828274057269386,
        "alt_km": 696.5261410535686,
        "timestamp": "2025-12-27T15:27:11.474672+00:00",
        "meta_object_name": "FENGYUN 1C DEB",
        "meta_object_id": "1999-025CFH",
        "meta_epoch": "2025-12-25T11:58:59.903616",
        "meta_mean_motion": 14.4233459,
        "meta_eccentricity": 0.031665,
        "meta_inclination": 98.0606,
        "meta_ra_of_asc_node": 7.8908,
        "meta_arg_of_pericenter": 51.4999,
        "meta_mean_anomaly": 311.414,
        "meta_ephemeris_type": 0,
        "meta_classification_type": "U",
        "meta_norad_cat_id": 31758,
        "meta_element_set_no": 999,
        "meta_rev_at_epoch": 94384,
        "meta_bstar": 0.0025434,
        "meta_mean_motion_dot": 0.00015408,
        "meta_mean_motion_ddot": 0,
        "tle_line1": "1 31758U 99025CFH 25359.49930444  .00015408  00000+0  25434-2 0  9997",
        "tle_line2": "2 31758  98.0606   7.8908 0316650  51.4999 311.4140 14.42334590943842"
      },
      "geometry": {
        "type": "Point",
        "coordinates": [
          14.828274057269386,
          -31.114498665555466
        ]
      }
    },
    {
      "type": "Feature",
      "properties": {
        "norad_id": 31760,
        "name": "FENGYUN 1C DEB",
        "group": "fengyun-1c-debris",
        "lat": 48.335849323873695,
        "lon": 89.69522089247042,
        "alt_km": 796.6300805099372,
        "timestamp": "2025-12-27T15:27:11.474682+00:00",
        "meta_object_name": "FENGYUN 1C DEB",
        "meta_object_id": "1999-025CFK",
        "meta_epoch": "2025-12-26T17:23:43.613376",
        "meta_mean_motion": 14.30228389,
        "meta_eccentricity": 0.00531622,
        "meta_inclination": 99.2536,
        "meta_ra_of_asc_node": 99.2754,
        "meta_arg_of_pericenter": 157.5122,
        "meta_mean_anomaly": 202.8406,
        "meta_ephemeris_type": 0,
        "meta_classification_type": "U",
        "meta_norad_cat_id": 31760,
        "meta_element_set_no": 999,
        "meta_rev_at_epoch": 96332,
        "meta_bstar": 0.00073421898,
        "meta_mean_motion_dot": 1.883e-05,
        "meta_mean_motion_ddot": 0,
        "tle_line1": "1 31760U 99025CFK 25360.72481034  .00001883  00000+0  73422-3 0  9997",
        "tle_line2": "2 31760  99.2536  99.2754 0053162 157.5122 202.8406 14.30228389963324"
      },
      "geometry": {
        "type": "Point",
        "coordinates": [
          89.69522089247042,
          48.335849323873695
        ]
      }
    },
    {
      "type": "Feature",
      "properties": {
        "norad_id": 31761,
        "name": "FENGYUN 1C DEB",
        "group": "fengyun-1c-debris",
        "lat": -79.52421183119566,
        "lon": -79.89831866710306,
        "alt_km": 680.3895171677395,
        "timestamp": "2025-12-27T15:27:11.474692+00:00",
        "meta_object_name": "FENGYUN 1C DEB",
        "meta_object_id": "1999-025CFL",
        "meta_epoch": "2025-12-26T09:03:40.559328",
        "meta_mean_motion": 14.03653694,
        "meta_eccentricity": 0.0470823,
        "meta_inclination": 98.6342,
        "meta_ra_of_asc_node": 223.6341,
        "meta_arg_of_pericenter": 224.8549,
        "meta_mean_anomaly": 131.3656,
        "meta_ephemeris_type": 0,
        "meta_classification_type": "U",
        "meta_norad_cat_id": 31761,
        "meta_element_set_no": 999,
        "meta_rev_at_epoch": 58302,
        "meta_bstar": 0.0017034,
        "meta_mean_motion_dot": 7.224e-05,
        "meta_mean_motion_ddot": 0,
        "tle_line1": "1 31761U 99025CFL 25360.37755277  .00007224  00000+0  17034-2 0  9993",
        "tle_line2": "2 31761  98.6342 223.6341 0470823 224.8549 131.3656 14.03653694583025"
      },
      "geometry": {
        "type": "Point",
        "coordinates": [
          -79.89831866710306,
          -79.52421183119566
        ]
      }
    }
  ]
}